[{"OBJECT_NAME":"STARLINK-6244","OBJECT_ID":"2023-065AX","EPOCH":"2026-03-09T22:00:01.999584","MEAN_MOTION":15.12668669,"ECCENTRICITY":0.00022746,"INCLINATION":43.0001,"RA_OF_ASC_NODE":221.6277,"ARG_OF_PERICENTER":280.106,"MEAN_ANOMALY":119.3874,"EPHEMERIS_TYPE":0,"CLASSIFICATION_TYPE":"U","NORAD_CAT_ID":56548,"ELEMENT_SET_NO":999,"REV_AT_EPOCH":577,"BSTAR":0.0065491588,"MEAN_MOTION_DOT":0.00118316,"MEAN_MOTION_DDOT":0},{"OBJECT_NAME":"CZ-2D DEB","OBJECT_ID":"2010-027G","EPOCH":"2026-03-07T07:54:25.300800","MEAN_MOTION":15.18267572,"ECCENTRICITY":0.0071051,"INCLINATION":97.484,"RA_OF_ASC_NODE":105.3106,"ARG_OF_PERICENTER":258.5099,"MEAN_ANOMALY":100.8151,"EPHEMERIS_TYPE":0,"CLASSIFICATION_TYPE":"U","NORAD_CAT_ID":38302,"ELEMENT_SET_NO":999,"REV_AT_EPOCH":83107,"BSTAR":0.0021438,"MEAN_MOTION_DOT":0.00047105,"MEAN_MOTION_DDOT":0}]
